#dP2019  3 17  0  0  0.00000000      96 __u+U IGS08 FIT  IAC
## 2045      0.00000000   900.00000000 58559 0.0000000000000
+   97   C01C02C03C04C05C06C07C08C09C10C11C12C13C14C16E01E02
+        E03E04E05E07E08E09E11E12E13E14E15E18E19E21E24E25E26
+        E27E30E31E33E36G01G02G03G04G05G06G07G08G09G10G11G12
+        G13G14G15G16G17G18G19G20G21G22G23G24G25G26G27G28G29
+        G30G31G32J01J02J03R01R02R03R04R05R07R08R09R10R11R13
+        R14R15R16R17R18R19R20R21R22R23R24R26  0  0  0  0  0
++        12 12 12 12 12  8  8  8  8  8  7  8  7  8  8  4  4
++         4  4  5  5  4  5  4  5  4  4  4  5  5  4  4  4  4
++         4  4  4  5  5  3  3  3  4  3  3  3  3  3  3  3  3
++         3  3  3  5  3  3  3  3  3  3  3  3  3  3  3  3  3
++         3  3  3  9  9 10  6  7  5  5  5  5  5  5  5  5  6
++         5  5  6  5  5  7  5  5  5  5  6  7  0  0  0  0  0
%c M  cc GPS ccc cccc cccc cccc cccc ccccc ccccc ccccc ccccc
%c cc cc ccc ccc cccc cccc cccc cccc ccccc ccccc ccccc ccccc
%f  1.2500000  1.025000000  0.00000000000  0.000000000000000
%f  0.0000000  0.000000000  0.00000000000  0.000000000000000
%i    0    0    0    0      0      0      0      0         0
%i    0    0    0    0      0      0      0      0         0
/* INFORMATION & ANALYSIS CENTER (IAC)            FINAL DATA
/* S/V CLOCKS ARE ALIGNED TO GPS & GLONASS TIME RESPECTIVELY
/* USING THE BROADCAST EPHEMERIS                            
/* PCV:IGS14_2038 OL/AL:FES2004  NONE     YN ORB:CoN CLK:CoN
*  2019 03 17 12 30  0.00000000
PC01 -32286.002266  27092.658932    947.715262    341.951602
PC02   4400.437068  41954.732954     49.006582   -382.598536
PC03 -14878.165589  39438.044618    565.639410    -42.383998
PC04 -39605.813519  14442.753993    688.209919     16.874570
PC05  21851.265102  36046.173495   -207.743954   -129.446665
PC06 -18632.580259  20976.575177 -31254.042049    544.113264
PC07 -19714.296529  36852.518915   3215.615838     92.805503
PC08  -5839.034891  29496.106451  29764.443834    130.518900
PC09  -2257.262055  24305.421720 -34177.779905    612.490673
PC10 -10051.080836  38178.661503  14381.850697   -581.751276
PC11  -1463.832978  16434.046243  22573.823122    -55.225192
PC12 -23901.486328  -3048.120581  14079.144811    499.426234
PC13   4545.744615  37388.861374  19252.583031   -598.413681
PC14 -20106.420674  17878.316617  -7435.617412    755.475065
PC16 -14279.656849  22050.965052 -33018.514383   -382.518940
PE01 -14376.239425  -7772.397089 -24685.120913   -563.989798
PE02  14385.992964   7737.624650  24679.222187     51.864847
PE03  25788.120469   6017.471660 -13237.454296   -144.869000
PE04 -28302.490025   7229.314672  -4784.448313   -242.174530
PE05   8128.367394  15844.191911 -23642.298868     90.145436
PE07  14203.295676 -16362.545847  20177.678638   -150.840662
PE08  28219.636715  -7499.550432   4896.600592   6387.469738
PE09 -14054.598127  16356.956008 -20263.295504   6497.587910
PE11  -3376.117052  19450.460424  22050.886031   5715.111433
PE12 -18304.602542   1804.629506  23207.872450   6392.224107
PE13   3343.902264 -19329.853651 -22156.980709    384.328886
PE14  24475.220052   9373.593806   2512.496214   6430.060879
PE15  18034.324994  -2206.584037 -23351.407807    916.888748
PE18 -19634.726460 -18620.292697 -14452.879832   -594.197424
PE19 -24596.773147  -7133.178007  14850.575064     -7.686402
PE21  -1451.455889 -24741.169494 -16191.679482   -524.505914
PE24 -12153.995774  26968.231409  -1385.599770   6180.833345
PE25   1406.006315  24770.285970  16144.400748   1862.843624
PE26 -13061.336469 -25334.738700  -7978.449910   4788.502361
PE27  12230.137076 -26891.201565   1810.252643    508.770926
PE30  18791.424575 -13519.117986  18425.637707   5025.885824
PE31 -18709.268876  13263.481965 -18713.524076    880.889636
PE33 -22222.520451 -16254.339958  10899.306488    847.946734
PE36  13330.060046  25185.206550   8004.315132    735.456714
PG01 -15152.945951    692.800383  21658.311530   -182.562963
PG02  14314.122696  20472.559859  -8661.456473   -165.740218
PG03 -21073.033508   9185.977540  13198.846564    186.624432
PG04 -10493.557075  12440.515764 -20980.517662    135.066725
PG05  12506.286906   9249.788005 -21653.036368      1.178840
PG06   7041.684035  25559.300520   1314.097507    253.102159
PG07  -9345.993419  15641.977558 -18907.628072     13.228076
PG08 -26056.926630  -5688.038675   -187.680426   -136.484140
PG09 -16098.309611  10093.783145 -18607.630895    443.841065
PG10   7730.642347 -21746.330914  13028.323034     95.219597
PG11 -19891.707077  -2343.747969  16800.931453   -643.486098
PG12  21115.431949  -6936.665471  14193.633162    259.383503
PG13  22177.721195  13008.288875  -6857.546325    -71.384345
PG14  -9972.916937 -16658.934026  18514.505905    -88.018502
PG15  26606.053182   2623.221770   1192.930066   -323.111435
PG16 -12820.517205  -8128.484910 -22016.500787    -26.015394
PG17     97.605585  15312.987798  22120.187853     24.757704
PG18 -16867.446048  -9690.388738  17664.643895     35.635048
PG19   9445.821416  16184.864524  18487.831809   -341.306771
PG20  13511.292851 -22544.133712   3146.488519    523.174366
PG21   4980.561167 -19894.427128 -16143.407281   -230.787627
PG22 -19298.598510   2009.322145  18348.731254   -665.964415
PG23 -24514.170029   2391.836434 -10131.175951   -193.712147
PG24  16891.855971   3252.752983  20160.276294    -63.511628
PG25  19796.281395 -16913.232619   4281.378015   -734.208189
PG26  -4288.310164 -16761.625165 -20119.948722    151.535651
PG27 -21511.201158 -12004.716031 -10406.605393    -88.040121
PG28 -10296.425125  21075.967830  13155.453902    766.429252
PG29  20582.272662  -5000.012078 -16045.904613    247.325755
PG30  -1997.390839  24005.427673 -10968.897786    -70.011459
PG31  -7109.014174 -25335.855002   -110.193073     51.555410
PG32  -3931.643607 -15959.283907  20932.560852   -176.883624
PJ01 -33420.608654  24641.859237  -2752.297084   -344.602554
PJ02 -21225.136490  30388.952455 -15724.652900      0.338790
PJ03 -28375.518993  23288.106565  25825.626541     -0.305063
PR01  14854.436883 -13612.184792  15655.865022     40.958027
PR02  -5850.515382  -9467.434613  22993.546442    359.200172
PR03 -20794.018419   -114.679658  14844.814689     -7.573370
PR04 -23512.167700   9609.370338  -2423.639104    298.918446
PR05 -13054.654902  13330.313311 -17393.493489     24.231791
PR07  21026.348037   -187.626488 -14378.226166    -60.045985
PR08  23683.313010  -9302.824488   1792.811099     18.613755
PR09   3385.455824  20548.129862  14694.819476     59.555154
PR10   9476.802411   6421.448911  22761.247039     45.239554
PR11  11556.706978 -13265.971391  18495.412300    -59.973934
PR13  -2735.779800 -21450.999061 -13552.184259    -21.340696
PR14  -9783.497539  -6397.712858 -22667.029894     36.996722
PR15 -11503.415313  12434.319894 -19060.019063    100.682234
PR16  -6291.735125  24388.225106  -4451.112512     10.722915
PR17 -20514.079461 -13524.013865   6812.403858    212.798936
PR18 -15631.332981  -1403.181361  20149.592031     36.840836
PR19  -2436.349716  11493.764428  22645.660462     48.460833
PR20  13413.922330  18711.352366  10936.540693   -372.029336
PR21  20525.614841  13248.436095  -7363.835981    -37.046921
PR22  13857.986330   -726.909784 -21359.879116     -9.850495
PR23  -2275.251735 -14462.235663 -20892.996022    215.871115
PR24 -14824.183898 -18513.518446  -9438.677377   -178.299066
PR26  12183.247760  18294.632919  12975.641627      1.748708
EOF
